[{"OBJECT_NAME":"STARLINK-31228","OBJECT_ID":"2024-017S","EPOCH":"2026-03-09T16:21:34.540992","MEAN_MOTION":15.30186757,"ECCENTRICITY":0.00011148,"INCLINATION":53.1605,"RA_OF_ASC_NODE":204.4502,"ARG_OF_PERICENTER":91.7379,"MEAN_ANOMALY":268.3749,"EPHEMERIS_TYPE":0,"CLASSIFICATION_TYPE":"U","NORAD_CAT_ID":58842,"ELEMENT_SET_NO":999,"REV_AT_EPOCH":12005,"BSTAR":1.6503119e-5,"MEAN_MOTION_DOT":1.3e-6,"MEAN_MOTION_DDOT":0},{"OBJECT_NAME":"TITAN 3C TRANSTAGE DEB","OBJECT_ID":"1965-082PT","EPOCH":"2026-03-09T13:23:41.116128","MEAN_MOTION":15.28908269,"ECCENTRICITY":0.00104371,"INCLINATION":32.0266,"RA_OF_ASC_NODE":255.1391,"ARG_OF_PERICENTER":172.8339,"MEAN_ANOMALY":187.2474,"EPHEMERIS_TYPE":0,"CLASSIFICATION_TYPE":"U","NORAD_CAT_ID":3462,"ELEMENT_SET_NO":999,"REV_AT_EPOCH":24824,"BSTAR":0.0004444037,"MEAN_MOTION_DOT":0.00012939,"MEAN_MOTION_DDOT":0}]
